[
    {
        "Altitude(m)": 702878.9568600262,
        "Argument of Periapsis(deg)": 0.006834072711976239,
        "Eccentricity": 0.0,
        "Inclination(deg)": 45.0,
        "Latitude(deg)": 17.9698452471695,
        "Longitude(deg)": 120.72819219933632,
        "Mean Anomaly(deg)": 154.19262998848848,
        "RAAN(deg)": 59.99354883512507,
        "Satellite Name": "Constellation 1 273",
        "Satellite Number": 273,
        "Semi-Major Axis(m)": 7083131.272910544,
        "Time(s)": 114
    },
    {
        "Altitude(m)": 702876.4083577055,
        "Argument of Periapsis(deg)": 0.006894020718221645,
        "Eccentricity": 0.0,
        "Inclination(deg)": 45.0,
        "Latitude(deg)": 17.928956115085427,
        "Longitude(deg)": 120.77142607442516,
        "Mean Anomaly(deg)": 154.25333112873835,
        "RAAN(deg)": 59.9934922459595,
        "Satellite Name": "Constellation 1 273",
        "Satellite Number": 273,
        "Semi-Major Axis(m)": 7083131.272910544,
        "Time(s)": 115
    },
    {
        "Altitude(m)": 702873.8753057304,
        "Argument of Periapsis(deg)": 0.006953968724467052,
        "Eccentricity": 0.0,
        "Inclination(deg)": 45.0,
        "Latitude(deg)": 17.888055314832872,
        "Longitude(deg)": 120.81463821002579,
        "Mean Anomaly(deg)": 154.31403226898829,
        "RAAN(deg)": 59.99343565679393,
        "Satellite Name": "Constellation 1 273",
        "Satellite Number": 273,
        "Semi-Major Axis(m)": 7083131.272910544,
        "Time(s)": 116
    },
    {
        "Altitude(m)": 702871.3577327101,
        "Argument of Periapsis(deg)": 0.007013916730712457,
        "Eccentricity": 0.0,
        "Inclination(deg)": 45.0,
        "Latitude(deg)": 17.847142880025206,
        "Longitude(deg)": 120.85782866278942,
        "Mean Anomaly(deg)": 154.3747334092382,
        "RAAN(deg)": 59.99337906762836,
        "Satellite Name": "Constellation 1 273",
        "Satellite Number": 273,
        "Semi-Major Axis(m)": 7083131.272910544,
        "Time(s)": 117
    },
    {
        "Altitude(m)": 702868.8556672136,
        "Argument of Periapsis(deg)": 0.007073864736957864,
        "Eccentricity": 0.0,
        "Inclination(deg)": 45.0,
        "Latitude(deg)": 17.80621884423313,
        "Longitude(deg)": 120.90099748933642,
        "Mean Anomaly(deg)": 154.43543454948806,
        "RAAN(deg)": 59.993322478462794,
        "Satellite Name": "Constellation 1 273",
        "Satellite Number": 273,
        "Semi-Major Axis(m)": 7083131.272910544,
        "Time(s)": 118
    },
    {
        "Altitude(m)": 702866.3691377374,
        "Argument of Periapsis(deg)": 0.0071338127432032696,
        "Eccentricity": 0.0,
        "Inclination(deg)": 45.0,
        "Latitude(deg)": 17.765283240984886,
        "Longitude(deg)": 120.94414457815938,
        "Mean Anomaly(deg)": 154.496135689738,
        "RAAN(deg)": 59.99326588929723,
        "Satellite Name": "Constellation 1 273",
        "Satellite Number": 273,
        "Semi-Major Axis(m)": 7083131.272910544,
        "Time(s)": 119
    },
    {
        "Altitude(m)": 702863.8981727243,
        "Argument of Periapsis(deg)": 0.007193760749448674,
        "Eccentricity": 0.0,
        "Inclination(deg)": 45.0,
        "Latitude(deg)": 17.724336103765925,
        "Longitude(deg)": 120.98727032201138,
        "Mean Anomaly(deg)": 154.5568368299879,
        "RAAN(deg)": 59.99320930013166,
        "Satellite Name": "Constellation 1 273",
        "Satellite Number": 273,
        "Semi-Major Axis(m)": 7083131.272910544,
        "Time(s)": 120
    },
    {
        "Altitude(m)": 702861.4428005506,
        "Argument of Periapsis(deg)": 0.007253708755694079,
        "Eccentricity": 0.0,
        "Inclination(deg)": 45.0,
        "Latitude(deg)": 17.683377466019724,
        "Longitude(deg)": 121.03037460932345,
        "Mean Anomaly(deg)": 154.61753797023778,
        "RAAN(deg)": 59.993152710966086,
        "Satellite Name": "Constellation 1 273",
        "Satellite Number": 273,
        "Semi-Major Axis(m)": 7083131.272910544,
        "Time(s)": 121
    },
    {
        "Altitude(m)": 702859.0030495289,
        "Argument of Periapsis(deg)": 0.0073136567619394854,
        "Eccentricity": 0.0,
        "Inclination(deg)": 45.0,
        "Latitude(deg)": 17.6424073611475,
        "Longitude(deg)": 121.07345749659272,
        "Mean Anomaly(deg)": 154.67823911048768,
        "RAAN(deg)": 59.99309612180051,
        "Satellite Name": "Constellation 1 273",
        "Satellite Number": 273,
        "Semi-Major Axis(m)": 7083131.272910544,
        "Time(s)": 122
    },
    {
        "Altitude(m)": 702856.5789479173,
        "Argument of Periapsis(deg)": 0.0073736047681848904,
        "Eccentricity": 0.0,
        "Inclination(deg)": 45.0,
        "Latitude(deg)": 17.601425822508194,
        "Longitude(deg)": 121.11651904028571,
        "Mean Anomaly(deg)": 154.7389402507376,
        "RAAN(deg)": 59.993039532634945,
        "Satellite Name": "Constellation 1 273",
        "Satellite Number": 273,
        "Semi-Major Axis(m)": 7083131.272910544,
        "Time(s)": 123
    },
    {
        "Altitude(m)": 702854.1705239017,
        "Argument of Periapsis(deg)": 0.007433552774430298,
        "Eccentricity": 0.0,
        "Inclination(deg)": 45.0,
        "Latitude(deg)": 17.56043288341898,
        "Longitude(deg)": 121.15955929683781,
        "Mean Anomaly(deg)": 154.79964139098746,
        "RAAN(deg)": 59.992982943469386,
        "Satellite Name": "Constellation 1 273",
        "Satellite Number": 273,
        "Semi-Major Axis(m)": 7083131.272910544,
        "Time(s)": 124
    },
    {
        "Altitude(m)": 702851.7778056168,
        "Argument of Periapsis(deg)": 0.007493500780675703,
        "Eccentricity": 0.0,
        "Inclination(deg)": 45.0,
        "Latitude(deg)": 17.519428577155015,
        "Longitude(deg)": 121.2025783226537,
        "Mean Anomaly(deg)": 154.8603425312374,
        "RAAN(deg)": 59.99292635430381,
        "Satellite Name": "Constellation 1 273",
        "Satellite Number": 273,
        "Semi-Major Axis(m)": 7083131.272910544,
        "Time(s)": 125
    },
    {
        "Altitude(m)": 702849.4008211273,
        "Argument of Periapsis(deg)": 0.007553448786921108,
        "Eccentricity": 0.0,
        "Inclination(deg)": 45.0,
        "Latitude(deg)": 17.478412936949884,
        "Longitude(deg)": 121.2455760060099,
        "Mean Anomaly(deg)": 154.92104367148727,
        "RAAN(deg)": 59.99286976513824,
        "Satellite Name": "Constellation 1 273",
        "Satellite Number": 273,
        "Semi-Major Axis(m)": 7083131.272910544,
        "Time(s)": 126
    },
    {
        "Altitude(m)": 702847.0395984378,
        "Argument of Periapsis(deg)": 0.007613396793166514,
        "Eccentricity": 0.0,
        "Inclination(deg)": 45.0,
        "Latitude(deg)": 17.437385995995115,
        "Longitude(deg)": 121.28855273944359,
        "Mean Anomaly(deg)": 154.98174481173717,
        "RAAN(deg)": 59.99281317597267,
        "Satellite Name": "Constellation 1 273",
        "Satellite Number": 273,
        "Semi-Major Axis(m)": 7083131.272910544,
        "Time(s)": 127
    },
    {
        "Altitude(m)": 702844.6941654895,
        "Argument of Periapsis(deg)": 0.007673344799411918,
        "Eccentricity": 0.0,
        "Inclination(deg)": 45.0,
        "Latitude(deg)": 17.396347787441183,
        "Longitude(deg)": 121.33150841116934,
        "Mean Anomaly(deg)": 155.04244595198705,
        "RAAN(deg)": 59.9927565868071,
        "Satellite Name": "Constellation 1 273",
        "Satellite Number": 273,
        "Semi-Major Axis(m)": 7083131.272910544,
        "Time(s)": 128
    },
    {
        "Altitude(m)": 702842.3645501626,
        "Argument of Periapsis(deg)": 0.007733292805657325,
        "Eccentricity": 0.0,
        "Inclination(deg)": 45.0,
        "Latitude(deg)": 17.35529834439686,
        "Longitude(deg)": 121.3744430774682,
        "Mean Anomaly(deg)": 155.10314709223698,
        "RAAN(deg)": 59.99269999764152,
        "Satellite Name": "Constellation 1 273",
        "Satellite Number": 273,
        "Semi-Major Axis(m)": 7083131.272910544,
        "Time(s)": 129
    },
    {
        "Altitude(m)": 702840.0507802764,
        "Argument of Periapsis(deg)": 0.00779324081190273,
        "Eccentricity": 0.0,
        "Inclination(deg)": 45.0,
        "Latitude(deg)": 17.31423769992972,
        "Longitude(deg)": 121.41735679459012,
        "Mean Anomaly(deg)": 155.16384823248686,
        "RAAN(deg)": 59.99264340847595,
        "Satellite Name": "Constellation 1 273",
        "Satellite Number": 273,
        "Semi-Major Axis(m)": 7083131.272910544,
        "Time(s)": 130
    },
    {
        "Altitude(m)": 702837.7528835733,
        "Argument of Periapsis(deg)": 0.007853188818148135,
        "Eccentricity": 0.0,
        "Inclination(deg)": 45.0,
        "Latitude(deg)": 17.273165887066238,
        "Longitude(deg)": 121.46024961875392,
        "Mean Anomaly(deg)": 155.2245493727368,
        "RAAN(deg)": 59.9925868193104,
        "Satellite Name": "Constellation 1 273",
        "Satellite Number": 273,
        "Semi-Major Axis(m)": 7083131.272910544,
        "Time(s)": 131
    },
    {
        "Altitude(m)": 702835.470887752,
        "Argument of Periapsis(deg)": 0.007913136824393542,
        "Eccentricity": 0.0,
        "Inclination(deg)": 45.0,
        "Latitude(deg)": 17.23208293879169,
        "Longitude(deg)": 121.50312160614759,
        "Mean Anomaly(deg)": 155.28525051298666,
        "RAAN(deg)": 59.99253023014482,
        "Satellite Name": "Constellation 1 273",
        "Satellite Number": 273,
        "Semi-Major Axis(m)": 7083131.272910544,
        "Time(s)": 132
    }
]